[{"OBJECT_NAME":"STARLINK-4637","OBJECT_ID":"2022-107AU","EPOCH":"2026-03-09T19:36:51.780672","MEAN_MOTION":15.08847365,"ECCENTRICITY":0.00014619,"INCLINATION":53.216,"RA_OF_ASC_NODE":263.4826,"ARG_OF_PERICENTER":88.8421,"MEAN_ANOMALY":271.2739,"EPHEMERIS_TYPE":0,"CLASSIFICATION_TYPE":"U","NORAD_CAT_ID":53742,"ELEMENT_SET_NO":999,"REV_AT_EPOCH":19461,"BSTAR":4.6017795e-5,"MEAN_MOTION_DOT":4.45e-6,"MEAN_MOTION_DDOT":0},{"OBJECT_NAME":"COSMOS 2058","OBJECT_ID":"1990-010A","EPOCH":"2026-03-09T23:30:01.891584","MEAN_MOTION":15.11324867,"ECCENTRICITY":0.00093159,"INCLINATION":82.4669,"RA_OF_ASC_NODE":47.1427,"ARG_OF_PERICENTER":343.3032,"MEAN_ANOMALY":16.789,"EPHEMERIS_TYPE":0,"CLASSIFICATION_TYPE":"U","NORAD_CAT_ID":20465,"ELEMENT_SET_NO":999,"REV_AT_EPOCH":94228,"BSTAR":0.00029943939,"MEAN_MOTION_DOT":5.077e-5,"MEAN_MOTION_DDOT":0}]
